NORAD_CAT_ID,OBJECT_NAME,OBJECT_TYPE,EPOCH,MEAN_MOTION,ECCENTRICITY,INCLINATION,RA_OF_ASC_NODE,ARG_OF_PERICENTER,MEAN_ANOMALY,BSTAR,MEAN_MOTION_DOT,MEAN_MOTION_DDOT,TLE_LINE0,TLE_LINE1,TLE_LINE2,SEMIMAJOR_AXIS,PERIOD,APOGEE,PERIGEE,DECAYED
51124.0,STARLINK-3389,PAYLOAD,2023-05-03 04:50:35,15.08838647,0.0001166,53.2158,294.5379,68.9895,291.1221,4.1441e-05,3.72e-06,0.0,0 STARLINK-3389,1 51124U 22005W   23123.20180174  .00000372  00000-0  41441-4 0  9996,2 51124  53.2158 294.5379 0001166  68.9895 291.1221 15.08838647 72622,6917.885,95.438,540.556,538.943,0.0
51124.0,STARLINK-3389,PAYLOAD,2023-05-03 11:12:08,15.08838407,0.0001313,53.2163,293.3503,67.5237,292.5894,0.0001251,1.704e-05,0.0,0 STARLINK-3389,1 51124U 22005W   23123.46676480  .00001704  00000-0  12510-3 0  9998,2 51124  53.2163 293.3503 0001313  67.5237 292.5894 15.08838407 71559,6917.885,95.438,540.659,538.842,0.0
51124.0,STARLINK-3389,PAYLOAD,2023-05-03 20:44:27,15.08842924,0.0001127,53.2166,291.5651,74.1156,285.996,0.00010572,1.395e-05,0.0,0 STARLINK-3389,1 51124U 22005W   23123.86420188  .00001395  00000-0  10572-3 0  9996,2 51124  53.2166 291.5651 0001127  74.1156 285.9960 15.08842924 71619,6917.871,95.437,540.516,538.957,0.0
51124.0,STARLINK-3389,PAYLOAD,2023-05-04 04:41:23,15.08839731,0.0001427,53.2162,290.0809,61.1426,298.971,3.7344e-05,3.06e-06,0.0,0 STARLINK-3389,1 51124U 22005W   23124.19540510  .00000306  00000-0  37344-4 0  9993,2 51124  53.2162 290.0809 0001427  61.1426 298.9710 15.08839731 71667,6917.881,95.438,540.733,538.759,0.0
51124.0,STARLINK-3389,PAYLOAD,2023-05-04 20:35:14,15.08843772,0.0001071,53.2171,287.1048,65.0972,295.0132,6.1614e-05,6.93e-06,0.0,0 STARLINK-3389,1 51124U 22005W   23124.85780173  .00000693  00000-0  61614-4 0  9993,2 51124  53.2171 287.1048 0001071  65.0972 295.0132 15.08843772 72873,6917.869,95.437,540.475,538.993,0.0
51124.0,STARLINK-3389,PAYLOAD,2023-05-05 14:04:29,15.08830193,8.79e-05,53.2183,283.8353,61.6452,298.4629,0.00010985,1.461e-05,0.0,0 STARLINK-3389,1 51124U 22005W   23125.58645002  .00001461  00000-0  10985-3 0  9993,2 51124  53.2183 283.8353 0000879  61.6452 298.4629 15.08830193 72981,6917.91,95.438,540.383,539.167,0.0
51124.0,STARLINK-3389,PAYLOAD,2023-05-05 20:26:01,15.08845084,0.0001061,53.2184,282.6452,80.7895,279.3217,9.803e-05,1.273e-05,0.0,0 STARLINK-3389,1 51124U 22005W   23125.85140072  .00001273  00000-0  98030-4 0  9999,2 51124  53.2184 282.6452 0001061  80.7895 279.3217 15.08845084 71914,6917.865,95.437,540.464,538.996,0.0
51124.0,STARLINK-3389,PAYLOAD,2023-05-06 15:30:38,15.08847841,0.0001052,53.2174,279.0765,69.2373,290.8732,0.00014716,2.056e-05,0.0,0 STARLINK-3389,1 51124U 22005W   23126.64627974  .00002056  00000-0  14716-3 0  9996,2 51124  53.2174 279.0765 0001052  69.2373 290.8732 15.08847841 72030,6917.856,95.437,540.449,538.994,0.0
51124.0,STARLINK-3389,PAYLOAD,2023-05-07 02:38:20,15.08843668,7.88e-05,53.2153,276.994,72.2709,287.8369,8.144e-05,1.009e-05,0.0,0 STARLINK-3389,1 51124U 22005W   23127.10996048  .00001009  00000-0  81440-4 0  9995,2 51124  53.2153 276.9940 0000788  72.2709 287.8369 15.08843668 73216,6917.869,95.437,540.279,539.189,0.0
51124.0,STARLINK-3389,PAYLOAD,2023-05-07 13:46:03,15.08832331,8.28e-05,53.216,274.9149,91.9963,268.1124,-3.8204e-05,-8.95e-06,0.0,0 STARLINK-3389,1 51124U 22005W   23127.57365371 -.00000895  00000-0 -38204-4 0  9999,2 51124  53.2160 274.9149 0000828  91.9963 268.1124 15.08832331 72178,6917.904,95.438,540.342,539.196,0.0
51124.0,STARLINK-3389,PAYLOAD,2023-05-07 16:56:49,15.08836102,7.77e-05,53.2163,274.3209,81.1205,278.9875,-1.7196e-06,-3.15e-06,0.0,0 STARLINK-3389,1 51124U 22005W   23127.70613058 -.00000315  00000-0 -17196-5 0  9997,2 51124  53.2163 274.3209 0000777  81.1205 278.9875 15.08836102 73303,6917.892,95.438,540.295,539.22,0.0
51124.0,STARLINK-3389,PAYLOAD,2023-05-08 02:29:07,15.08847063,8.81e-05,53.2165,272.536,82.17,277.9392,8.6814e-05,1.094e-05,0.0,0 STARLINK-3389,1 51124U 22005W   23128.10356115  .00001094  00000-0  86814-4 0  9995,2 51124  53.2165 272.5360 0000881  82.1700 277.9392 15.08847063 73367,6917.859,95.437,540.333,539.114,0.0
51124.0,STARLINK-3389,PAYLOAD,2023-05-08 16:47:35,15.08858323,8.66e-05,53.2155,269.8593,80.725,279.384,0.0002227,3.26e-05,0.0,0 STARLINK-3389,1 51124U 22005W   23128.69971284  .00003260  00000-0  22270-3 0  9991,2 51124  53.2155 269.8593 0000866  80.7250 279.3840 15.08858323 73455,6917.824,95.436,540.288,539.09,0.0
51124.0,STARLINK-3389,PAYLOAD,2023-05-09 13:27:36,15.08837629,7.68e-05,53.2155,265.9938,101.5018,258.606,0.00013625,1.881e-05,0.0,0 STARLINK-3389,1 51124U 22005W   23129.56084450  .00001881  00000-0  13625-3 0  9999,2 51124  53.2155 265.9938 0000768 101.5018 258.6060 15.08837629 72471,6917.888,95.438,540.284,539.221,0.0
51124.0,STARLINK-3389,PAYLOAD,2023-05-10 02:10:42,15.08835241,9.27e-05,53.2159,263.6142,67.0383,293.0707,-1.8827e-05,-5.87e-06,0.0,0 STARLINK-3389,1 51124U 22005W   23130.09076689 -.00000587  00000-0 -18827-4 0  9998,2 51124  53.2159 263.6142 0000927  67.0383 293.0707 15.08835241 72553,6917.895,95.438,540.401,539.119,0.0
51124.0,STARLINK-3389,PAYLOAD,2023-05-10 16:29:10,15.08847344,0.0001069,53.2162,260.9392,56.8356,303.2739,0.00024396,3.598e-05,0.0,0 STARLINK-3389,1 51124U 22005W   23130.68692502  .00003598  00000-0  24396-3 0  9991,2 51124  53.2162 260.9392 0001069  56.8356 303.2739 15.08847344 72644,6917.858,95.437,540.462,538.983,0.0
51124.0,STARLINK-3389,PAYLOAD,2023-05-11 02:01:29,15.08843467,0.0001108,53.2162,259.157,59.5183,300.5918,0.00028554,4.26e-05,0.0,0 STARLINK-3389,1 51124U 22005W   23131.08436569  .00004260  00000-0  28554-3 0  9992,2 51124  53.2162 259.1570 0001108  59.5183 300.5918 15.08843467 73815,6917.87,95.437,540.501,538.968,0.0
51124.0,STARLINK-3389,PAYLOAD,2023-05-11 13:09:11,15.08838149,0.0001119,53.2162,257.0736,62.4856,297.625,0.00019369,2.796e-05,0.0,0 STARLINK-3389,1 51124U 22005W   23131.54805083  .00002796  00000-0  19369-3 0  9990,2 51124  53.2162 257.0736 0001119  62.4856 297.6250 15.08838149 73881,6917.886,95.438,540.525,538.977,0.0
51124.0,STARLINK-3389,PAYLOAD,2023-05-12 01:52:16,15.08843209,0.0001075,53.2157,254.6955,60.4613,299.6486,0.00022209,3.249e-05,0.0,0 STARLINK-3389,1 51124U 22005W   23132.07796912  .00003249  00000-0  22209-3 0  9990,2 51124  53.2157 254.6955 0001075  60.4613 299.6486 15.08843209 72853,6917.871,95.437,540.479,538.992,0.0
51124.0,STARLINK-3389,PAYLOAD,2023-05-12 11:24:35,15.0883908,8.55e-05,53.216,252.9066,101.3079,258.801,8.9488e-05,1.137e-05,0.0,0 STARLINK-3389,1 51124U 22005W   23132.47540961  .00001137  00000-0  89488-4 0  9992,2 51124  53.2160 252.9066 0000855 101.3079 258.8010 15.08839080 72916,6917.883,95.438,540.34,539.157,0.0
51124.0,STARLINK-3389,PAYLOAD,2023-05-13 12:50:45,15.08843511,9.15e-05,53.2161,248.1478,116.5045,243.6041,0.00016026,2.264e-05,0.0,0 STARLINK-3389,1 51124U 22005W   23133.53524752  .00002264  00000-0  16026-3 0  9999,2 51124  53.2161 248.1478 0000915 116.5045 243.6041 15.08843511 74180,6917.87,95.437,540.368,539.102,0.0
51124.0,STARLINK-3389,PAYLOAD,2023-05-13 16:01:32,15.08830765,0.0001166,53.2163,247.5533,123.3036,236.8068,0.00059788,9.238e-05,0.0,0 STARLINK-3389,1 51124U 22005W   23133.66773423  .00009238  00000-0  59788-3 0  9994,2 51124  53.2163 247.5533 0001166 123.3036 236.8068 15.08830765 74205,6917.909,95.438,540.58,538.967,0.0
51124.0,STARLINK-3389,PAYLOAD,2023-05-14 14:16:55,15.08838012,0.0001076,53.2174,243.39,98.3461,261.7653,3.9651e-05,3.43e-06,0.0,0 STARLINK-3389,1 51124U 22005W   23134.59509197  .00000343  00000-0  39651-4 0  9998,2 51124  53.2174 243.3900 0001076  98.3461 261.7653 15.08838012 73234,6917.886,95.438,540.496,539.007,0.0
51124.0,STARLINK-3389,PAYLOAD,2023-05-14 23:49:14,15.08836326,0.0001103,53.2172,241.6087,85.2899,274.8219,2.3385e-05,8.4e-07,0.0,0 STARLINK-3389,1 51124U 22005W   23134.99253424  .00000084  00000-0  23385-4 0  9990,2 51124  53.2172 241.6087 0001103  85.2899 274.8219 15.08836326 74409,6917.892,95.438,540.52,538.994,0.0
51124.0,STARLINK-3389,PAYLOAD,2023-05-15 12:32:19,15.08839578,0.00011,53.2169,239.2299,89.1121,270.9998,1.2589e-05,-8.7e-07,0.0,0 STARLINK-3389,1 51124U 22005W   23135.52245317 -.00000087  00000-0  12589-4 0  9990,2 51124  53.2169 239.2299 0001100  89.1121 270.9998 15.08839578 73379,6917.882,95.438,540.508,538.986,0.0
51124.0,STARLINK-3389,PAYLOAD,2023-05-15 14:07:43,15.0884234,9.98e-05,53.2171,238.9346,100.4141,259.6964,6.6467e-05,7.7e-06,0.0,0 STARLINK-3389,1 51124U 22005W   23135.58869313  .00000770  00000-0  66467-4 0  9996,2 51124  53.2171 238.9346 0000998 100.4141 259.6964 15.08842340 73383,6917.873,95.437,540.429,539.048,0.0
51124.0,STARLINK-3389,PAYLOAD,2023-05-16 12:23:07,15.08834943,0.0001025,53.2166,234.7728,103.3336,256.777,7.1825e-05,8.55e-06,0.0,0 STARLINK-3389,1 51124U 22005W   23136.51606015  .00000855  00000-0  71825-4 0  9996,2 51124  53.2166 234.7728 0001025 103.3336 256.7770 15.08834943 74637,6917.896,95.438,540.47,539.052,0.0
51124.0,STARLINK-3389,PAYLOAD,2023-05-17 13:49:17,15.08843777,9.76e-05,53.2167,230.0143,95.6984,264.412,0.00011015,1.466e-05,0.0,0 STARLINK-3389,1 51124U 22005W   23137.57589422  .00001466  00000-0  11015-3 0  9998,2 51124  53.2167 230.0143 0000976  95.6984 264.4120 15.08843777 74791,6917.869,95.437,540.409,539.059,0.0
51124.0,STARLINK-3389,PAYLOAD,2023-05-17 23:21:36,15.08838587,0.0001088,53.2169,228.2305,82.2183,277.8932,9.6598e-05,1.25e-05,0.0,0 STARLINK-3389,1 51124U 22005W   23137.97333867  .00001250  00000-0  96598-4 0  9993,2 51124  53.2169 228.2305 0001088  82.2183 277.8932 15.08838587 74859,6917.885,95.438,540.502,538.997,0.0
51124.0,STARLINK-3389,PAYLOAD,2023-05-18 12:04:41,15.08838346,0.0001015,53.2157,225.8497,65.5364,294.5734,3.1398e-06,-2.38e-06,0.0,0 STARLINK-3389,1 51124U 22005W   23138.50326195 -.00000238  00000-0  31398-5 0  9993,2 51124  53.2157 225.8497 0001015  65.5364 294.5734 15.08838346 73821,6917.885,95.438,540.453,539.048,0.0
